#aV2015  8  9  0  0  0.00000000     288 DD+AD WGS84 FIT  NGA
## 1857      0.00000000   300.00000000 57243 0.0000000000000
+   30     1  2  3  4  5  6  7  9 11 12 13 14 15 16 17 18 19
+         20 21 22 23 24 25 26 27 28 29 30 31 32  0  0  0  0
+          0  0  0  0  0  0  0  0  0  0  0  0  0  0  0  0  0
+          0  0  0  0  0  0  0  0  0  0  0  0  0  0  0  0  0
+          0  0  0  0  0  0  0  0  0  0  0  0  0  0  0  0  0
++         2  2  2  2  2  2  2  2  2  2  2  2  2  2  2  2  2
++         2  2  2  2  2  2  2  2  2  2  2  2  2  0  0  0  0
++         0  0  0  0  0  0  0  0  0  0  0  0  0  0  0  0  0
++         0  0  0  0  0  0  0  0  0  0  0  0  0  0  0  0  0
++         0  0  0  0  0  0  0  0  0  0  0  0  0  0  0  0  0
%c cc cc ccc ccc cccc cccc cccc cccc ccccc ccccc ccccc ccccc
%c cc cc ccc ccc cccc cccc cccc cccc ccccc ccccc ccccc ccccc
%f  0.0000000  0.000000000  0.00000000000  0.000000000000000
%f  0.0000000  0.000000000  0.00000000000  0.000000000000000
%i    0    0    0    0      0      0      0      0         0
%i    0    0    0    0      0      0      0      0         0
/*      NGA, ST. LOUIS,MO.                                  
/*   EPHEMERIS COMPUTED FROM  1 DAYS OF DATA                
/*   EPOCHA SMOOTHER                                       
/* CCCCCCCCCCCCCCCCCCCCCCCCCCCCCCCCCCCCCCCCCCCCCCCCCCCCCCCCC
*  2015  8  9 10 10  0.00000000
P  1 -20719.486239 -13737.465401  -9690.578211     -1.548366                    
V  1  12269.682033   1529.825464 -28390.240425      0.006279                    
P  2   -578.800457  16105.095894  21531.448463    583.072160                    
V  2 -25581.234163  -6881.303238   4099.081899      0.020350                    
P  3 -13421.345219 -19022.056725  12771.980406     14.716848                    
V  3  -1240.789128 -16333.441744 -25684.520836      0.025014                    
P  4 -12866.970312 -16560.291591 -16789.507575     -8.587866                    
V  4  20340.485732   3994.848921 -19669.735484     -0.035104                    
P  5   1537.512540  25718.976537   5969.373991   -208.536074                    
V  5  -4971.893211  -6756.436716  30313.430296      0.042248                    
P  6 -14401.816044  10033.694921  19931.163115     34.120711                    
V  6 -23824.794912  -8605.838681 -12887.182395      0.078529                    
P  7 -25784.386935  -5700.393097  -4283.797230    479.008336                    
V  7  -4519.647867  -3840.886781  31088.201207      0.019890                    
P  9 -20114.227566   2081.349784  17227.247908    -10.603921                    
V  9  14835.614980 -16190.247489  19253.056050     -0.008290                    
P 11 -17662.810764 -12243.972807 -16219.151748   -596.738213                    
V 11  19665.838569  -3771.821859 -19110.733859     -0.024794                    
P 12  10893.566298  21824.046087  10662.440920    317.332231                    
V 12    819.646316  13648.093884 -28282.934053      0.033822                    
P 13  -6933.601989  19383.217044 -16982.218079   -139.486618                    
V 13 -17985.740191  11370.942843  20369.745079     -0.033020                    
P 14  21848.263257 -14610.114660  -2922.785322     43.025240                    
V 14  -1441.606493   4691.464436 -31681.178705     -0.026679                    
P 15   6144.140537  15588.029258 -20640.975442   -265.094975                    
V 15 -19151.766940  17877.172614   8159.479441     -0.020835                    
P 16    238.497522 -25576.508986   6311.544591    -99.396783                    
V 16   3333.478966   7763.625373  31289.196392      0.041741                    
P 17 -20952.435486  15997.846197  -1778.497663   -183.445421                    
V 17    333.737369  -3698.197991 -32062.293842     -0.015303                    
P 18  16201.528245    993.874409 -20551.556464    424.044392                    
V 18   5941.200244  26724.527678   5547.123893      0.030357                    
P 19  -2890.502171 -15976.438128 -21137.844285   -517.917387                    
V 19  21597.242288 -15259.845056   9119.739905     -0.008544                    
P 20  13572.626103  20902.056569  -9207.322912    345.481978                    
V 20    -45.794537  12111.132174  27959.847531      0.031882                    
P 21  25725.461936   2995.674229  -5929.738931   -470.571622                    
V 21   7105.355917   5565.380631  29731.264193     -0.030315                    
P 22  11767.686961 -13473.095288 -19343.046480    379.588784                    
V 22   7698.475556  24133.180474 -12153.896317      0.038203                    
P 23 -12512.262330  -9574.156424  21574.490038   -126.110175                    
V 23  19886.665394 -18305.023157   2995.908495     -0.022859                    
P 24  18823.122902  14493.503091 -12065.514937     -2.736768                    
V 24 -15293.207483  -1976.450229 -26159.937471     -0.006382                    
P 25  15409.432863  10154.819584  19060.807761    -23.224064                    
V 25   4249.678936  23967.552131 -15959.539964     -0.047498                    
P 26   6224.098007 -20815.490846  15266.779470    -23.412304                    
V 26   6270.612512  18473.773322  22623.035806     -0.078216                    
P 27   7895.354806 -20816.034101 -14419.881611     10.555711                    
V 27  14806.807509 -10938.258394  24057.012050      0.028545                    
P 28 -12673.253142   8730.860048 -21015.098884    459.349214                    
V 28  -4766.541254 -27692.456136  -8466.852896      0.026298                    
P 29  18896.086017    851.469064  18642.219047    627.114952                    
V 29 -17419.542924  16007.131159  16979.845456      0.021694                    
P 30 -22277.829799   2100.498225 -14376.373071      2.645487                    
V 30 -16140.413284  -8743.815300  23662.227333      0.072482                    
P 31  13502.995943 -10152.934975  20705.855366    307.016273                    
V 31  24204.643015   9164.114783 -11035.918602     -0.012933                    
P 32  -4963.834866 -26333.311422   1777.465587    -77.277908                    
V 32   2450.183189  -2629.552463 -30982.517981      0.104286                    
EOF
